[{"OBJECT_NAME":"STARLINK-32346","OBJECT_ID":"2024-202E","EPOCH":"2026-03-09T11:34:51.982176","MEAN_MOTION":15.27573633,"ECCENTRICITY":0.00019557,"INCLINATION":43.004,"RA_OF_ASC_NODE":228.1127,"ARG_OF_PERICENTER":284.2034,"MEAN_ANOMALY":75.8601,"EPHEMERIS_TYPE":0,"CLASSIFICATION_TYPE":"U","NORAD_CAT_ID":61849,"ELEMENT_SET_NO":999,"REV_AT_EPOCH":7542,"BSTAR":-1.1503501e-5,"MEAN_MOTION_DOT":-5.79e-6,"MEAN_MOTION_DDOT":0},{"OBJECT_NAME":"GEOSCAN 6 (RS92S6)","OBJECT_ID":"2025-155D","EPOCH":"2026-03-09T21:52:39.201312","MEAN_MOTION":15.27985277,"ECCENTRICITY":0.00087677,"INCLINATION":97.4466,"RA_OF_ASC_NODE":37.2933,"ARG_OF_PERICENTER":153.7679,"MEAN_ANOMALY":206.4006,"EPHEMERIS_TYPE":0,"CLASSIFICATION_TYPE":"U","NORAD_CAT_ID":64879,"ELEMENT_SET_NO":999,"REV_AT_EPOCH":6559,"BSTAR":0.00053762354,"MEAN_MOTION_DOT":0.00014633,"MEAN_MOTION_DDOT":0}]
